"name","address","lat","lng"
"First United Methodist Church of San Diego","2111 Camino del Rio S, San Diego, CA 92108, USA",32.7670415,-117.1425142
"First Presbyterian Church of San Diego","320 Date St, San Diego, CA 92101, USA",32.7233606,-117.1614469
"C3 Church San Diego","7620 Balboa Ave, San Diego, CA 92111, USA",32.82232,-117.159287
"The Rock Church","2277 Rosecrans St, San Diego, CA 92106, USA",32.7356775,-117.2186883
"City Church San Diego","10802 Willow Ct, San Diego, CA 92127, USA",33.0158021,-117.1019778
"Cornerstone Church of San Diego - South Campus","1920 Sweetwater Rd, National City, CA 91950, USA",32.6592964,-117.0781311
"Grace Church San Diego","2716 Madison Ave, San Diego, CA 92116, USA",32.7612303,-117.1348856
"Gathering Place Church in San Diego, CA","9550 Carmel Mountain Rd, San Diego, CA 92129, USA",32.9672159,-117.1209337
"New City Church","3366 Park Blvd, San Diego, CA 92103, USA",32.7403541,-117.1480406
"Church in San Diego","6640 Flanders Dr, San Diego, CA 92121, USA",32.9064243,-117.175988
"Canyon Ridge Baptist Church of San Diego","6866 Linda Vista Rd, San Diego, CA 92111, USA",32.7822551,-117.1729255
"The Anchor San Diego","1765 Pentecost Way, San Diego, CA 92105, USA",32.724338,-117.0817067
"Iranian Christian Church of San Diego","6964 Mission Gorge Rd, San Diego, CA 92120, USA",32.7999135,-117.0919399
"Christ Church of San Diego","1355 Fern St, San Diego, CA 92102, USA",32.720021,-117.129206
"Flood Church - San Diego Campus","1954 Komet Way, San Diego, CA 92111, USA",32.8005256,-117.1595431
"Barabbas Road Church San Diego","4833 Doliva Dr, San Diego, CA 92117, USA",32.8326135,-117.1745753
"San Diego California Temple","7474 Charmant Dr, San Diego, CA 92122, USA",32.8664058,-117.2286807
"Saddleback Church San Diego","Canyon Crest Academy, 5951 Village Center Loop Rd, San Diego, CA 92130, USA",32.9588146,-117.1895206
"St Spyridon Greek Orthodox Church","3655 Park Blvd, San Diego, CA 92103, USA",32.7445213,-117.1472799
"All Saints Episcopal Church","625 Pennsylvania Ave, San Diego, CA 92103, USA",32.74497,-117.159305
"Chinese Evangelical Church of San Diego","2585 Judson St, San Diego, CA 92111, USA",32.7900665,-117.1607424
"Newbreak Church Office","10791 Tierrasanta Blvd, San Diego, CA 92124, USA",32.821269,-117.0994993
"Canvas Church","10733 Westview Pkwy, San Diego, CA 92126, USA",32.915209,-117.117578
"Church of Scientology of San Diego","1330 Fourth Ave, San Diego, CA 92101, USA",32.7194521,-117.1612836
"First Unitarian Universalist Church of San Diego","4190 Front St, San Diego, CA 92103, USA",32.7534056,-117.1663176
"Servant Church of San Diego","631 S Evans St, San Diego, CA 92113, USA",32.7005279,-117.1383425
"First Baptist Church-San Diego","5055 Governor Dr, San Diego, CA 92122, USA",32.853798,-117.187183
"Grace Bible Church San Diego","7250 Eckstrom Ave, San Diego, CA 92111, USA",32.8206359,-117.1645715
"First Lutheran Church","1420 Third Ave, San Diego, CA 92101, USA",32.7201072,-117.1623785
"St Agnes Catholic Church","1140 Evergreen St, San Diego, CA 92106, USA",32.7231296,-117.2338286
"St Marks United Methodist Church, San Diego","3502 Clairemont Dr, San Diego, CA 92117, USA",32.804517,-117.2001905
"New Creation Church","3115 Altadena Ave, San Diego, CA 92105, USA",32.7376373,-117.0887857
"Missiongathering Christian Church","3090 Polk Ave, San Diego, CA 92104, USA",32.752484,-117.1280483
"Bayview Baptist Church","6134 Benson Ave, San Diego, CA 92114, USA",32.705509,-117.066139
"City View Church","8404 Phyllis Pl, San Diego, CA 92123, USA",32.78440399999999,-117.147133
"Unity San Diego - a spiritual community","3770 Altadena Ave, San Diego, CA 92105, USA",32.7464425,-117.085753
"All Souls' Episcopal Church","1475 Catalina Blvd, San Diego, CA 92107, USA",32.7311568,-117.2424421
"The Rock Church, City Heights","4001 El Cajon Blvd, San Diego, CA 92105, USA",32.7547667,-117.1078422
"Grace Point Church San Diego","13340 Hayford Way, San Diego, CA 92130, USA",32.960086,-117.209276
"Immaculate Conception Church","2540 San Diego Ave, San Diego, CA 92110, USA",32.7534674,-117.1954108
"St Dunstan's Episcopal Church","6556 Park Ridge Blvd, San Diego, CA 92120, USA",32.79601299999999,-117.0496641
"Metropolitan Community Church","2633 Denver St, San Diego, CA 92110, USA",32.7899616,-117.2030396
"Makers Church","1774 Chatsworth Blvd, San Diego, CA 92106, USA",32.7336386,-117.2337988
"St. Luke's Episcopal Church","3725 30th St, San Diego, CA 92104, USA",32.74576100000001,-117.129686
"San Diego 31st Street Seventh-day Adventist Church","414 S 31st St, San Diego, CA 92113, USA",32.7020141,-117.1276539
"Harbor City Church","705 16th St, San Diego, CA 92101, USA",32.7130346,-117.1492476
"Center Church San Diego","1770 Main St, San Diego, CA 92113, USA",32.7012417,-117.1487291
"St Columba Catholic Church","3327 Glencolum Dr, San Diego, CA 92123, USA",32.8042474,-117.1341928
"Grace Lutheran Church","3967 Park Blvd, San Diego, CA 92103, USA",32.7499665,-117.1457311
"St David's Episcopal Church","5050 Milton St, San Diego, CA 92110, USA",32.7831768,-117.1898344
"Mission Valley Church of the Nazarene","4750 Mission Gorge Pl, San Diego, CA 92120, USA",32.7821269,-117.089323
"San Diego Central Seventh-day Adventist Church","13940 Pomerado Rd, Poway, CA 92064, USA",32.9674977,-117.0630426
"St Timothy's Episcopal Church","10125 Azuaga St, San Diego, CA 92129, USA",32.9594119,-117.1068753
"The Grove Church","4562 Alvarado Canyon Rd, San Diego, CA 92120, USA",32.780309,-117.096605
"La Jolla Community Church","4377 Eastgate Mall, San Diego, CA 92121, USA",32.877803,-117.212405
"St. John the Evangelist Catholic Church","1638 Polk Ave, San Diego, CA 92103, USA",32.752863,-117.146973
"Good Shepherd Catholic Church","8200 Gold Coast Dr, San Diego, CA 92126, USA",32.9063459,-117.1469131
"Holy Family Catholic Church & School","1957 Coolidge St, San Diego, CA 92111, USA",32.7805731,-117.1700271
"University Christian Church (Disciples of Christ)","3900 Cleveland Ave, San Diego, CA 92103, USA",32.750153,-117.150758
"First Unitarian Universalist Church of San Diego","970 Broadway, Chula Vista, CA 91911, USA",32.6146911,-117.0837293