"name","address","lat","lng"
"Notre Dame Academy Elementary School","2911 Overland Ave, Los Angeles, CA 90064, USA",34.033526,-118.418947
"Los Angeles High School","4650 W Olympic Blvd, Los Angeles, CA 90019, USA",34.0554228,-118.3329959
"Loyola High School","1901 Venice Blvd, Los Angeles, CA 90006, USA",34.044917,-118.296672
"Marlborough School","250 S Rossmore Ave, Los Angeles, CA 90004, USA",34.0699098,-118.3268349
"Brentwood School, East Campus","100 S Barrington Pl, Los Angeles, CA 90049, USA",34.067168,-118.468795
"The Archer School for Girls","11725 Sunset Blvd, Los Angeles, CA 90049, USA",34.0650914,-118.471615
"New Los Angeles Charter Elementary School","1919 S Burnside Ave, Los Angeles, CA 90016, USA",34.0405831,-118.3580205
"Wildwood School","11811 Olympic Blvd, Los Angeles, CA 90064, USA",34.0338616,-118.4515361
"Milken Community Schools","15800 Zeldins Way, Los Angeles, CA 90049, USA",34.1257621,-118.4781846
"Pilgrim School","540 South Commonwealth Avenue, Los Angeles, CA 90020, USA",34.0641165,-118.2848656
"American University Preparatory School","345 S Figueroa St #100, Los Angeles, CA 90071, USA",34.054276,-118.255787
"Bishop Conaty- Our Lady of Loretto High School","2900 Pico Blvd, Los Angeles, CA 90006, USA",34.0466765,-118.3031833
"Downtown Magnets High School","1081 W Temple St, Los Angeles, CA 90012, USA",34.0630446,-118.250412
"Fusion Academy Los Angeles","1640 S Sepulveda Blvd #100, Los Angeles, CA 90025, USA",34.0489062,-118.4451176
"Academia Semillas Del Pueblo School","4970 Huntington Dr, Los Angeles, CA 90032, USA",34.0875738,-118.1743204
"Wildwood School","12201 Washington Pl, Los Angeles, CA 90066, USA",34.000672,-118.428849
"The Episcopal School of Los Angeles","6325 Santa Monica Blvd, Los Angeles, CA 90038, USA",34.0910272,-118.3276369
"Yeshiva University High School","9760 Pico Blvd, Los Angeles, CA 90035, USA",34.05388,-118.4012934
"Hollywood High School","1521 N Highland Ave, Los Angeles, CA 90028, USA",34.099165,-118.3400514
"Windward School","11350 Palms Blvd, Los Angeles, CA 90066, USA",34.0174798,-118.4261578
"Los Angeles International Charter High School","625 Coleman Ave, Los Angeles, CA 90042, USA",34.1028328,-118.1826621
"John Marshall High School","3939 Tracy St, Los Angeles, CA 90027, USA",34.1079309,-118.2774744
"Los Angeles High School of the Arts","701 S Catalina St A414, Los Angeles, CA 90005, USA",34.0598891,-118.2968022
"Marymount High School","10643 Sunset Blvd, Los Angeles, CA 90077, USA",34.0759611,-118.4452426
"International School of Los Angeles / Lycée International","4155 Russell Ave, Los Angeles, CA 90027, USA",34.1043464,-118.279565
"Ramón C. Cortines School of Visual and Performing Arts","450 N Grand Ave, Los Angeles, CA 90012, USA",34.059121,-118.243368
"Green Dot Public Schools","1149 S Hill St, Los Angeles, CA 90015, USA",34.0392113,-118.2612751
"The Los Angeles Film School","6353 Sunset Blvd, Los Angeles, CA 90028, USA",34.0983007,-118.3285297
"Sacred Heart High School","2111 Griffin Ave, Los Angeles, CA 90031, USA",34.069865,-118.21199
"Notre Dame Academy Los Angeles","2851 Overland Ave, Los Angeles, CA 90064, USA",34.0341619,-118.4193739
"Harvard-Westlake School","700 N Faring Rd, Los Angeles, CA 90077, USA",34.0887482,-118.4340011
"Los Angeles Unified School District","2114 Marengo St, Los Angeles, CA 90033, USA",34.055793,-118.2057266
"Ánimo Jackie Robinson Charter High School","3500 S Hill St, Los Angeles, CA 90007, USA",34.0174954,-118.2759071
"Ánimo Jefferson Charter Middle School","1655 E 27th St, Los Angeles, CA 90011, USA",34.012487,-118.243516
"Oscar De La Hoya Ánimo Charter High School","1114 S Lorena St, Los Angeles, CA 90023, USA",34.0234182,-118.2033486
"Manchester Avenue Elementary School","661 W 87th St, Los Angeles, CA 90044, USA",33.959498,-118.2855724
"Stratford School - Los Angeles Melrose","1200 N Cahuenga Blvd, Los Angeles, CA 90038, USA",34.092808,-118.3283825
"California Academy of Mathematics and Science School","1000 E Victoria St, Carson, CA 90747, USA",33.8611018,-118.2547207
"Westridge School","324 Madeline Dr, Pasadena, CA 91105, USA",34.1264782,-118.1562905
"Immaculate Heart High School","5515 Franklin Ave, Los Angeles, CA 90028, USA",34.1057717,-118.3104074
"Mayfield Senior School","500 Bellefontaine St, Pasadena, CA 91105, USA",34.1315926,-118.1610641
"Los Angeles Elementary School","1211 S Hobart Blvd, Los Angeles, CA 90006, USA",34.0476826,-118.305646
"The Buckley School","3900 Stansbury Ave, Sherman Oaks, CA 91423, USA",34.1405181,-118.4432601
"Ánimo South Los Angeles","11100 S Western Ave, Los Angeles, CA 90047, USA",33.9334954,-118.3085659
"Kipp La Prep","2810 Whittier Blvd, Los Angeles, CA 90023, USA",34.0315712,-118.2097417
"Bulgarian School in Los Angeles Ivan Vazov Българско училище в Лос Анжелис","1162 N Bronson Ave, Los Angeles, CA 90038, USA",34.0921947,-118.3177706
"Los Angeles Academy Middle School","644 56th St, Los Angeles, CA 90011, USA",33.9908852,-118.2643953
"Thomas Jefferson High School","1319 E 41st St, Los Angeles, CA 90011, USA",34.0108793,-118.2510101
"Cathedral High School","1253 Bishops Rd, Los Angeles, CA 90012, USA",34.0698258,-118.2345963
"Louisville High School","22300 Mulholland Dr, Woodland Hills, CA 91364, USA",34.1488217,-118.6098927
"International School of Los Angeles / Lycée International","1105 W Riverside Dr, Burbank, CA 91506, USA",34.159548,-118.312786
"High Tech Los Angeles","17111 Victory Blvd, Lake Balboa, CA 91406, USA",34.1872124,-118.5061308
"Curtis School","15871 Mulholland Dr, Los Angeles, CA 90049, USA",34.1284459,-118.477505
"Oakwood Elementary School","11230 Moorpark St, North Hollywood, CA 91602, USA",34.1496385,-118.3755957
"Le Lycée Français de Los Angeles","3261 Overland Ave, Los Angeles, CA 90034, USA",34.02770510000001,-118.4143362
"Bais Chana High School","9017 Pico Blvd, Los Angeles, CA 90035, USA",34.0554056,-118.3880096
"Campbell Hall","4533 Laurel Canyon Blvd, North Hollywood, CA 91607, USA",34.1526102,-118.3977745
"Woodrow Wilson Senior High School","4500 Multnomah St, Los Angeles, CA 90032, USA",34.0699853,-118.1862623
"Hillcrest Drive Elementary School","4041 Hillcrest Dr, Los Angeles, CA 90008, USA",34.0133005,-118.3475558
"Verbum Dei High School","11100 S Central Ave, Los Angeles, CA 90059, USA",33.9346846,-118.2533664